NORAD_CAT_ID,OBJECT_NAME,OBJECT_TYPE,EPOCH,MEAN_MOTION,ECCENTRICITY,INCLINATION,RA_OF_ASC_NODE,ARG_OF_PERICENTER,MEAN_ANOMALY,BSTAR,MEAN_MOTION_DOT,MEAN_MOTION_DDOT,TLE_LINE0,TLE_LINE1,TLE_LINE2,SEMIMAJOR_AXIS,PERIOD,APOGEE,PERIGEE,DECAYED
49734.0,STARLINK-3238,PAYLOAD,2024-07-01 20:00:43,15.08832392,0.0001272,53.219,33.8327,98.1328,261.9809,0.00031475,4.724e-05,0.0,0 STARLINK-3238,1 49734U 21115L   24183.83383456  .00004724  00000-0  31475-3 0  9995,2 49734  53.2190  33.8327 0001272  98.1328 261.9809 15.08832392143675,6917.904,95.438,540.649,538.889,0.0
49734.0,STARLINK-3238,PAYLOAD,2024-07-01 21:36:06,15.08835833,0.0001204,53.2184,33.535,97.7359,262.377,0.000366,5.541e-05,0.0,0 STARLINK-3238,1 49734U 21115L   24183.90007369  .00005541  00000-0  36600-3 0  9992,2 49734  53.2184  33.5350 0001204  97.7359 262.3770 15.08835833142578,6917.893,95.438,540.591,538.925,0.0
49734.0,STARLINK-3238,PAYLOAD,2024-07-02 13:29:57,15.08858081,0.0002448,53.2173,30.564,76.5444,283.5821,0.00054684,8.43e-05,0.0,0 STARLINK-3238,1 49734U 21115L   24184.56246860  .00008430  00000-0  54684-3 0  9998,2 49734  53.2173  30.5640 0002448  76.5444 283.5821 15.08858081143782,6917.825,95.436,541.384,537.997,0.0
49734.0,STARLINK-3238,PAYLOAD,2024-07-02 19:51:29,15.08845397,8.65e-05,53.2173,29.3721,74.8869,285.2219,0.00022531,3.3e-05,0.0,0 STARLINK-3238,1 49734U 21115L   24184.82742734  .00003300  00000-0  22531-3 0  9995,2 49734  53.2173  29.3721 0000865  74.8869 285.2219 15.08845397143822,6917.864,95.437,540.327,539.13,0.0
49734.0,STARLINK-3238,PAYLOAD,2024-07-02 21:26:52,15.08849625,9.06e-05,53.2165,29.074,74.5249,285.5843,0.00057306,8.847e-05,0.0,0 STARLINK-3238,1 49734U 21115L   24184.89366635  .00008847  00000-0  57306-3 0  9993,2 49734  53.2165  29.0740 0000906  74.5249 285.5843 15.08849625142728,6917.851,95.437,540.343,539.089,0.0
49734.0,STARLINK-3238,PAYLOAD,2024-07-03 19:42:17,15.08838861,0.0001128,53.216,24.9106,84.9963,275.1158,0.0011557,0.00018152,0.0,0 STARLINK-3238,1 49734U 21115L   24185.82103065  .00018152  00000-0  11557-2 0  9990,2 49734  53.2160  24.9106 0001128  84.9963 275.1158 15.08838861143970,6917.884,95.438,540.529,538.969,0.0
49734.0,STARLINK-3238,PAYLOAD,2024-07-04 13:11:31,15.0885159,0.0001965,53.2165,21.64,82.5944,277.5271,0.001022,0.0001602,0.0,0 STARLINK-3238,1 49734U 21115L   24186.54967240  .00016020  00000-0  10220-2 0  9991,2 49734  53.2165  21.6400 0001965  82.5944 277.5271 15.08851590144087,6917.845,95.437,541.069,538.351,0.0
49734.0,STARLINK-3238,PAYLOAD,2024-07-04 22:43:50,15.08850754,0.0001235,53.2172,19.8551,92.3062,267.8072,0.0006616,0.0001026,0.0,0 STARLINK-3238,1 49734U 21115L   24186.94710948  .00010260  00000-0  66160-3 0  9991,2 49734  53.2172  19.8551 0001235  92.3062 267.8072 15.08850754143037,6917.848,95.437,540.567,538.858,0.0
49734.0,STARLINK-3238,PAYLOAD,2024-07-05 19:23:50,15.08844888,0.0001161,53.2188,15.9883,95.8271,264.2854,0.00024864,3.672e-05,0.0,0 STARLINK-3238,1 49734U 21115L   24187.80822875  .00003672  00000-0  24864-3 0  9994,2 49734  53.2188  15.9883 0001161  95.8271 264.2854 15.08844888144274,6917.865,95.437,540.534,538.927,0.0
49734.0,STARLINK-3238,PAYLOAD,2024-07-05 22:34:37,15.08845368,0.0001173,53.2188,15.3936,95.6385,264.4741,0.00023642,3.477e-05,0.0,0 STARLINK-3238,1 49734U 21115L   24187.94070834  .00003477  00000-0  23642-3 0  9995,2 49734  53.2188  15.3936 0001173  95.6385 264.4741 15.08845368143184,6917.864,95.437,540.54,538.918,0.0
49734.0,STARLINK-3238,PAYLOAD,2024-07-06 12:53:05,15.08837605,0.0001075,53.2185,12.7161,94.673,265.4384,3.8369e-05,3.23e-06,0.0,0 STARLINK-3238,1 49734U 21115L   24188.53687044  .00000323  00000-0  38369-4 0  9998,2 49734  53.2185  12.7161 0001075  94.6730 265.4384 15.08837605144388,6917.888,95.438,540.496,539.009,0.0
49734.0,STARLINK-3238,PAYLOAD,2024-07-06 19:14:38,15.08834246,0.0001,53.2171,11.5278,96.1633,263.9473,-2.2623e-05,-6.48e-06,0.0,0 STARLINK-3238,1 49734U 21115L   24188.80183286 -.00000648  00000-0 -22623-4 0  9995,2 49734  53.2171  11.5278 0001000  96.1633 263.9473 15.08834246143318,6917.898,95.438,540.455,539.071,0.0
49734.0,STARLINK-3238,PAYLOAD,2024-07-07 11:08:29,15.08836794,0.0001179,53.2187,8.5579,99.3758,260.7367,4.003e-05,3.49e-06,0.0,0 STARLINK-3238,1 49734U 21115L   24189.46423276  .00000349  00000-0  40030-4 0  9992,2 49734  53.2187   8.5579 0001179  99.3758 260.7367 15.08836794143413,6917.89,95.438,540.571,538.94,0.0
49734.0,STARLINK-3238,PAYLOAD,2024-07-07 19:05:25,15.0883751,0.0001212,53.2191,7.0715,99.4207,260.6923,4.3452e-05,4.04e-06,0.0,0 STARLINK-3238,1 49734U 21115L   24189.79543361  .00000404  00000-0  43452-4 0  9999,2 49734  53.2191   7.0715 0001212  99.4207 260.6923 15.08837510144574,6917.888,95.438,540.591,538.915,0.0
49734.0,STARLINK-3238,PAYLOAD,2024-07-08 20:31:36,15.08837277,0.0001181,53.2203,2.3136,95.596,264.5166,0.00016111,2.277e-05,0.0,0 STARLINK-3238,1 49734U 21115L   24190.85527784  .00002277  00000-0  16111-3 0  9990,2 49734  53.2203   2.3136 0001181  95.5960 264.5166 15.08837277144731,6917.889,95.438,540.571,538.937,0.0
49734.0,STARLINK-3238,PAYLOAD,2024-07-09 04:28:31,15.08848881,0.000121,53.2194,0.8247,81.5499,278.5631,0.00020049,2.905e-05,0.0,0 STARLINK-3238,1 49734U 21115L   24191.18647078  .00002905  00000-0  20049-3 0  9999,2 49734  53.2194   0.8247 0001210  81.5499 278.5631 15.08848881144781,6917.853,95.437,540.555,538.881,0.0
49734.0,STARLINK-3238,PAYLOAD,2024-07-09 18:47:00,15.08836011,0.0001304,53.2188,358.1476,82.4563,277.6577,1.0625e-06,-2.71e-06,0.0,0 STARLINK-3238,1 49734U 21115L   24191.78263932 -.00000271  00000-0  10625-5 0  9994,2 49734  53.2188 358.1476 0001304  82.4563 277.6577 15.08836011144874,6917.893,95.438,540.66,538.855,0.0
49734.0,STARLINK-3238,PAYLOAD,2024-07-10 10:40:51,15.08840829,0.0001043,53.2168,355.1765,90.9842,269.127,6.0439e-05,6.74e-06,0.0,0 STARLINK-3238,1 49734U 21115L   24192.44503743  .00000674  00000-0  60439-4 0  9998,2 49734  53.2168 355.1765 0001043  90.9842 269.1270 15.08840829143860,6917.878,95.438,540.464,539.021,0.0
49734.0,STARLINK-3238,PAYLOAD,2024-07-12 04:00:52,15.08843277,0.0001553,53.2158,347.4426,92.2142,267.9028,0.00035526,5.371e-05,0.0,0 STARLINK-3238,1 49734U 21115L   24194.16727693  .00005371  00000-0  35526-3 0  9998,2 49734  53.2158 347.4426 0001553  92.2142 267.9028 15.08843277145231,6917.87,95.437,540.81,538.661,0.0
49734.0,STARLINK-3238,PAYLOAD,2024-07-12 13:33:11,15.08840196,0.0001647,53.2165,345.6521,133.1022,227.0109,0.00026235,3.89e-05,0.0,0 STARLINK-3238,1 49734U 21115L   24194.56472043  .00003890  00000-0  26235-3 0  9999,2 49734  53.2165 345.6521 0001647 133.1022 227.0109 15.08840196145291,6917.88,95.438,540.884,538.605,0.0
49734.0,STARLINK-3238,PAYLOAD,2024-07-12 16:43:58,15.08837855,0.0001248,53.2187,345.0665,83.6766,276.4369,5.0299e-05,5.13e-06,0.0,0 STARLINK-3238,1 49734U 21115L   24194.69719984  .00000513  00000-0  50299-4 0  9998,2 49734  53.2187 345.0665 0001248  83.6766 276.4369 15.08837855144203,6917.887,95.438,540.615,538.889,0.0
49734.0,STARLINK-3238,PAYLOAD,2024-07-13 13:23:58,15.08839412,0.0001288,53.2195,341.2007,80.4996,279.6142,3.4746e-05,2.65e-06,0.0,0 STARLINK-3238,1 49734U 21115L   24195.55832093  .00000265  00000-0  34746-4 0  9994,2 49734  53.2195 341.2007 0001288  80.4996 279.6142 15.08839412144333,6917.882,95.438,540.638,538.856,0.0
49734.0,STARLINK-3238,PAYLOAD,2024-07-13 19:45:31,15.08837882,0.0001086,53.2184,340.0077,91.7259,268.3858,6.5028e-05,7.47e-06,0.0,0 STARLINK-3238,1 49734U 21115L   24195.82328168  .00000747  00000-0  65028-4 0  9999,2 49734  53.2184 340.0077 0001086  91.7259 268.3858 15.08837882145483,6917.887,95.438,540.503,539.001,0.0
49734.0,STARLINK-3238,PAYLOAD,2024-07-14 02:07:03,15.08850113,0.0001099,53.2188,338.8211,84.2101,275.9017,0.00020594,2.992e-05,0.0,0 STARLINK-3238,1 49734U 21115L   24196.08823541  .00002992  00000-0  20594-3 0  9995,2 49734  53.2188 338.8211 0001099  84.2101 275.9017 15.08850113145527,6917.849,95.437,540.475,538.954,0.0
49734.0,STARLINK-3238,PAYLOAD,2024-07-14 13:14:46,15.08833119,0.0001155,53.2191,336.7412,101.6067,258.5054,0.0002234,3.269e-05,0.0,0 STARLINK-3238,1 49734U 21115L   24196.55192529  .00003269  00000-0  22340-3 0  9991,2 49734  53.2191 336.7412 0001155 101.6067 258.5054 15.08833119145591,6917.901,95.438,540.565,538.967,0.0
49734.0,STARLINK-3238,PAYLOAD,2024-07-14 14:50:09,15.088353,0.0001199,53.2195,336.4443,101.3655,258.7472,0.00025273,3.736e-05,0.0,0 STARLINK-3238,1 49734U 21115L   24196.61816462  .00003736  00000-0  25273-3 0  9994,2 49734  53.2195 336.4443 0001199 101.3655 258.7472 15.08835300144492,6917.895,95.438,540.589,538.93,0.0
49734.0,STARLINK-3238,PAYLOAD,2024-07-14 16:25:32,15.0884129,0.0001124,53.218,336.1456,92.9331,267.179,0.00024433,3.603e-05,0.0,0 STARLINK-3238,1 49734U 21115L   24196.68440287  .00003603  00000-0  24433-3 0  9999,2 49734  53.2180 336.1456 0001124  92.9331 267.1790 15.08841290144505,6917.876,95.437,540.519,538.964,0.0
49734.0,STARLINK-3238,PAYLOAD,2024-07-15 01:57:50,15.08861312,9.77e-05,53.2183,334.3578,85.1354,274.975,0.0004443,6.794e-05,0.0,0 STARLINK-3238,1 49734U 21115L   24197.08183129  .00006794  00000-0  44430-3 0  9996,2 49734  53.2183 334.3578 0000977  85.1354 274.9750 15.08861312145675,6917.815,95.436,540.356,539.004,0.0
49734.0,STARLINK-3238,PAYLOAD,2024-07-15 13:05:33,15.08831007,0.0001315,53.2187,332.2797,93.4344,266.6799,-0.00012293,-2.243e-05,0.0,0 STARLINK-3238,1 49734U 21115L   24197.54552450 -.00002243  00000-0 -12293-3 0  9993,2 49734  53.2187 332.2797 0001315  93.4344 266.6799 15.08831007145744,6917.908,95.438,540.683,538.863,0.0
49734.0,STARLINK-3238,PAYLOAD,2024-07-15 14:40:56,15.08834029,0.0001359,53.2182,331.9823,95.3909,264.7238,-5.5932e-05,-1.178e-05,0.0,0 STARLINK-3238,1 49734U 21115L   24197.61176385 -.00001178  00000-0 -55932-4 0  9994,2 49734  53.2182 331.9823 0001359  95.3909 264.7238 15.08834029144643,6917.899,95.438,540.704,538.823,0.0
